NORAD_CAT_ID,OBJECT_NAME,OBJECT_TYPE,EPOCH,MEAN_MOTION,ECCENTRICITY,INCLINATION,RA_OF_ASC_NODE,ARG_OF_PERICENTER,MEAN_ANOMALY,BSTAR,MEAN_MOTION_DOT,MEAN_MOTION_DDOT,TLE_LINE0,TLE_LINE1,TLE_LINE2,SEMIMAJOR_AXIS,PERIOD,APOGEE,PERIGEE,DECAYED
51983.0,STARLINK-3655,PAYLOAD,2023-04-25 04:05:03,15.08846823,0.0001078,53.2157,70.595,107.3811,252.7299,0.00014389,2.003e-05,0.0,0 STARLINK-3655,1 51983U 22025AD  23115.17017510  .00002003  00000-0  14389-3 0  9994,2 51983  53.2157  70.5950 0001078 107.3811 252.7299 15.08846823 63734,6917.86,95.437,540.47,538.979,0.0
51983.0,STARLINK-3655,PAYLOAD,2023-04-25 07:15:49,15.08853007,0.0001137,53.2169,70.0001,109.5021,250.6094,0.00010181,1.333e-05,0.0,0 STARLINK-3655,1 51983U 22025AD  23115.30265179  .00001333  00000-0  10181-3 0  9996,2 51983  53.2169  70.0001 0001137 109.5021 250.6094 15.08853007 62632,6917.841,95.437,540.492,538.919,0.0
51983.0,STARLINK-3655,PAYLOAD,2023-04-26 07:06:39,15.08819697,0.0001154,53.2176,65.5401,93.081,267.0314,-0.00023267,-3.987e-05,0.0,0 STARLINK-3655,1 51983U 22025AD  23116.29629405 -.00003987  00000-0 -23267-3 0  9999,2 51983  53.2176  65.5401 0001154  93.0810 267.0314 15.08819697 62785,6917.942,95.439,540.606,539.009,0.0
51983.0,STARLINK-3655,PAYLOAD,2023-04-27 03:46:40,15.08832573,0.0001097,53.2195,61.6757,96.7443,263.3675,-0.00010444,-1.949e-05,0.0,0 STARLINK-3655,1 51983U 22025AD  23117.15741040 -.00001949  00000-0 -10444-3 0  9994,2 51983  53.2195  61.6757 0001097  96.7443 263.3675 15.08832573 64032,6917.903,95.438,540.527,539.009,0.0
51983.0,STARLINK-3655,PAYLOAD,2023-04-27 05:22:03,15.08831646,0.0001294,53.2187,61.3781,88.382,271.7321,-0.00011279,-2.082e-05,0.0,0 STARLINK-3655,1 51983U 22025AD  23117.22365038 -.00002082  00000-0 -11279-3 0  9997,2 51983  53.2187  61.3781 0001294  88.3820 271.7321 15.08831646 62929,6917.906,95.438,540.666,538.876,0.0
51983.0,STARLINK-3655,PAYLOAD,2023-04-28 05:12:50,15.08836735,0.0001301,53.2196,56.9182,96.6897,263.4244,0.00028325,4.222e-05,0.0,0 STARLINK-3655,1 51983U 22025AD  23118.21724672  .00004222  00000-0  28325-3 0  9996,2 51983  53.2196  56.9182 0001301  96.6897 263.4244 15.08836735 64196,6917.89,95.438,540.655,538.855,0.0
51983.0,STARLINK-3655,PAYLOAD,2023-04-29 01:52:49,15.08862811,0.0001266,53.2187,53.0525,96.632,263.4817,0.0001459,2.036e-05,0.0,0 STARLINK-3655,1 51983U 22025AD  23119.07835354  .00002036  00000-0  14590-3 0  9991,2 51983  53.2187  53.0525 0001266  96.6320 263.4817 15.08862811 64321,6917.811,95.436,540.551,538.8,0.0
51983.0,STARLINK-3655,PAYLOAD,2023-04-30 00:08:14,15.0885272,0.0001459,53.2189,48.8899,103.2761,256.8394,-3.6598e-05,-8.71e-06,0.0,0 STARLINK-3655,1 51983U 22025AD  23120.00571999 -.00000871  00000-0 -36598-4 0  9998,2 51983  53.2189  48.8899 0001459 103.2761 256.8394 15.08852720 64466,6917.842,95.437,540.716,538.697,0.0
51983.0,STARLINK-3655,PAYLOAD,2023-04-30 01:43:37,15.08851932,0.0001393,53.2188,48.5922,100.5833,259.5316,-4.4158e-05,-9.91e-06,0.0,0 STARLINK-3655,1 51983U 22025AD  23120.07196026 -.00000991  00000-0 -44158-4 0  9993,2 51983  53.2188  48.5922 0001393 100.5833 259.5316 15.08851932 63351,6917.844,95.437,540.673,538.745,0.0
51983.0,STARLINK-3655,PAYLOAD,2023-04-30 19:12:52,15.08861998,0.0001517,53.2189,45.3209,94.1775,265.939,-0.00032445,-5.451e-05,0.0,0 STARLINK-3655,1 51983U 22025AD  23120.80060252 -.00005451  00000-0 -32445-3 0  9996,2 51983  53.2189  45.3209 0001517  94.1775 265.9390 15.08861998 64588,6917.813,95.436,540.728,538.629,0.0
51983.0,STARLINK-3655,PAYLOAD,2023-05-01 01:34:24,15.08851475,0.0001374,53.2191,44.1318,97.2721,262.8427,-0.00017842,-3.127e-05,0.0,0 STARLINK-3655,1 51983U 22025AD  23121.06555971 -.00003127  00000-0 -17842-3 0  9994,2 51983  53.2191  44.1318 0001374  97.2721 262.8427 15.08851475 63502,6917.845,95.437,540.661,538.76,0.0
51983.0,STARLINK-3655,PAYLOAD,2023-05-01 22:14:24,15.08838303,0.0001456,53.2192,40.266,109.4479,250.6671,4.0226e-05,3.52e-06,0.0,0 STARLINK-3655,1 51983U 22025AD  23121.92667800  .00000352  00000-0  40226-4 0  9992,2 51983  53.2192  40.2660 0001456 109.4479 250.6671 15.08838303 63632,6917.886,95.438,540.758,538.743,0.0
51983.0,STARLINK-3655,PAYLOAD,2023-05-01 23:49:48,15.08839233,0.0001451,53.2194,39.9689,108.8377,251.2773,4.6543e-05,4.53e-06,0.0,0 STARLINK-3655,1 51983U 22025AD  23121.99291733  .00000453  00000-0  46543-4 0  9997,2 51983  53.2194  39.9689 0001451 108.8377 251.2773 15.08839233 64763,6917.883,95.438,540.752,538.744,0.0
51983.0,STARLINK-3655,PAYLOAD,2023-05-02 04:35:57,15.08845582,0.0001334,53.2192,39.0759,90.8232,269.2913,9.7041e-05,1.257e-05,0.0,0 STARLINK-3655,1 51983U 22025AD  23122.19163238  .00001257  00000-0  97041-4 0  9990,2 51983  53.2192  39.0759 0001334  90.8232 269.2913 15.08845582 64792,6917.863,95.437,540.651,538.805,0.0
51983.0,STARLINK-3655,PAYLOAD,2023-05-02 18:54:26,15.08835521,0.0001255,53.2199,36.3989,91.4366,268.677,1.0638e-05,-1.19e-06,0.0,0 STARLINK-3655,1 51983U 22025AD  23122.78780230 -.00000119  00000-0  10638-4 0  9996,2 51983  53.2199  36.3989 0001255  91.4366 268.6770 15.08835521 64887,6917.894,95.438,540.627,538.891,0.0
51983.0,STARLINK-3655,PAYLOAD,2023-05-03 01:15:58,15.08846194,0.0001394,53.22,35.2139,99.4417,260.6733,-5.223e-05,-1.119e-05,0.0,0 STARLINK-3655,1 51983U 22025AD  23123.05275661 -.00001119  00000-0 -52230-4 0  9990,2 51983  53.2200  35.2139 0001394  99.4417 260.6733 15.08846194 64928,6917.861,95.437,540.691,538.762,0.0
51983.0,STARLINK-3655,PAYLOAD,2023-05-03 21:55:59,15.08837755,0.0001042,53.2182,31.3458,76.8602,283.2506,-8.0024e-05,-1.561e-05,0.0,0 STARLINK-3655,1 51983U 22025AD  23123.91388631 -.00001561  00000-0 -80024-4 0  9990,2 51983  53.2182  31.3458 0001042  76.8602 283.2506 15.08837755 63935,6917.887,95.438,540.473,539.031,0.0
51983.0,STARLINK-3655,PAYLOAD,2023-05-04 02:42:08,15.08843693,0.0001123,53.2187,30.4556,91.2493,268.8628,-2.2196e-05,-6.41e-06,0.0,0 STARLINK-3655,1 51983U 22025AD  23124.11260054 -.00000641  00000-0 -22196-4 0  9995,2 51983  53.2187  30.4556 0001123  91.2493 268.8628 15.08843693 65088,6917.869,95.437,540.511,538.957,0.0
51983.0,STARLINK-3655,PAYLOAD,2023-05-04 10:39:04,15.0884416,0.0001033,53.2179,28.9678,92.6982,267.4128,-5.3989e-05,-1.147e-05,0.0,0 STARLINK-3655,1 51983U 22025AD  23124.44380040 -.00001147  00000-0 -53989-4 0  9995,2 51983  53.2179  28.9678 0001033  92.6982 267.4128 15.08844160 64016,6917.868,95.437,540.447,539.018,0.0
51983.0,STARLINK-3655,PAYLOAD,2023-05-04 21:46:46,15.08840614,0.0001102,53.2192,26.8871,90.5473,269.5646,3.4168e-05,2.56e-06,0.0,0 STARLINK-3655,1 51983U 22025AD  23124.90748142  .00000256  00000-0  34168-4 0  9993,2 51983  53.2192  26.8871 0001102  90.5473 269.5646 15.08840614 64087,6917.879,95.438,540.506,538.981,0.0
51983.0,STARLINK-3655,PAYLOAD,2023-05-05 21:37:34,15.08836219,0.0001383,53.219,22.4251,104.1121,256.0025,-3.3492e-05,-8.21e-06,0.0,0 STARLINK-3655,1 51983U 22025AD  23125.90108852 -.00000821  00000-0 -33492-4 0  9991,2 51983  53.2190  22.4251 0001383 104.1121 256.0025 15.08836219 64237,6917.892,95.438,540.714,538.8,0.0
51983.0,STARLINK-3655,PAYLOAD,2023-05-06 00:48:20,15.08839129,0.0001191,53.2185,21.8299,90.8916,269.2212,-5.4929e-06,-3.75e-06,0.0,0 STARLINK-3655,1 51983U 22025AD  23126.03356639 -.00000375  00000-0 -54929-5 0  9997,2 51983  53.2185  21.8299 0001191  90.8916 269.2212 15.08839129 65379,6917.883,95.438,540.572,538.924,0.0
51983.0,STARLINK-3655,PAYLOAD,2023-05-06 23:03:43,15.08851252,0.0001226,53.2179,17.6661,95.0122,265.101,6.3351e-05,7.21e-06,0.0,0 STARLINK-3655,1 51983U 22025AD  23126.96091601  .00000721  00000-0  63351-4 0  9995,2 51983  53.2179  17.6661 0001226  95.0122 265.1010 15.08851252 65511,6917.846,95.437,540.559,538.863,0.0
51983.0,STARLINK-3655,PAYLOAD,2023-05-07 21:19:08,15.08835503,0.0001154,53.2184,13.5025,105.251,254.861,-1.2407e-05,-4.85e-06,0.0,0 STARLINK-3655,1 51983U 22025AD  23127.88829002 -.00000485  00000-0 -12407-4 0  9996,2 51983  53.2184  13.5025 0001154 105.2510 254.8610 15.08835503 65658,6917.894,95.438,540.557,538.961,0.0
51983.0,STARLINK-3655,PAYLOAD,2023-05-08 21:09:54,15.08850327,0.0001062,53.2177,9.0441,99.2563,260.8549,-8.2883e-05,-1.607e-05,0.0,0 STARLINK-3655,1 51983U 22025AD  23128.88188525 -.00001607  00000-0 -82883-4 0  9997,2 51983  53.2177   9.0441 0001062  99.2563 260.8549 15.08850327 64681,6917.849,95.437,540.448,538.979,0.0
51983.0,STARLINK-3655,PAYLOAD,2023-05-08 22:45:17,15.08850906,0.0001145,53.2177,8.7461,103.3864,256.7256,-2.5798e-05,-6.99e-06,0.0,0 STARLINK-3655,1 51983U 22025AD  23128.94812230 -.00000699  00000-0 -25798-4 0  9993,2 51983  53.2177   8.7461 0001145 103.3864 256.7256 15.08850906 64695,6917.847,95.437,540.504,538.92,0.0
51983.0,STARLINK-3655,PAYLOAD,2023-05-09 22:36:06,15.08775939,0.0001393,53.2184,4.2896,93.4272,266.688,0.00083418,0.0001299,0.0,0 STARLINK-3655,1 51983U 22025AD  23129.94174092  .00012990  00000-0  83418-3 0  9998,2 51983  53.2184   4.2896 0001393  93.4272 266.6880 15.08775939 64845,6918.076,95.442,540.905,538.978,0.0
51983.0,STARLINK-3655,PAYLOAD,2023-05-10 19:16:07,15.08828356,0.0001229,53.2189,0.4245,113.8024,246.3097,-0.00013735,-2.472e-05,0.0,0 STARLINK-3655,1 51983U 22025AD  23130.80286886 -.00002472  00000-0 -13735-3 0  9991,2 51983  53.2189   0.4245 0001229 113.8024 246.3097 15.08828356 64977,6917.916,95.438,540.631,538.931,0.0
51983.0,STARLINK-3655,PAYLOAD,2023-05-11 11:09:58,15.08840294,9.94e-05,53.2183,357.4467,89.1146,270.996,5.1021e-05,5.24e-06,0.0,0 STARLINK-3655,1 51983U 22025AD  23131.46526036  .00000524  00000-0  51021-4 0  9993,2 51983  53.2183 357.4467 0000994  89.1146 270.9960 15.08840294 65079,6917.879,95.438,540.432,539.057,0.0
51983.0,STARLINK-3655,PAYLOAD,2023-05-11 22:17:39,15.0885408,0.0001016,53.2183,355.3658,89.2998,270.811,0.00017775,2.543e-05,0.0,0 STARLINK-3655,1 51983U 22025AD  23131.92892790  .00002543  00000-0  17775-3 0  9997,2 51983  53.2183 355.3658 0001016  89.2998 270.8110 15.08854080 66266,6917.837,95.437,540.405,539.0,0.0
